NORAD_CAT_ID,OBJECT_NAME,OBJECT_TYPE,EPOCH,MEAN_MOTION,ECCENTRICITY,INCLINATION,RA_OF_ASC_NODE,ARG_OF_PERICENTER,MEAN_ANOMALY,BSTAR,MEAN_MOTION_DOT,MEAN_MOTION_DDOT,TLE_LINE0,TLE_LINE1,TLE_LINE2,SEMIMAJOR_AXIS,PERIOD,APOGEE,PERIGEE,DECAYED
55635.0,STARLINK-5495,PAYLOAD,2024-02-05 21:46:05,14.98336282,0.0002498,70.0,307.7197,269.3113,90.776,1.6531e-05,1.04e-06,0.0,0 STARLINK-5495,1 55635U 23021H   24036.90700711  .00000104  00000-0  16531-4 0  9997,2 55635  70.0000 307.7197 0002498 269.3113  90.7760 14.98336282 54537,6950.173,96.107,573.775,570.302,0.0
55635.0,STARLINK-5495,PAYLOAD,2024-02-06 04:10:37,14.98338814,0.0002467,70.0001,307.0467,268.9839,91.1037,4.623e-05,4.59e-06,0.0,0 STARLINK-5495,1 55635U 23021H   24037.17404363  .00000459  00000-0  46230-4 0  9993,2 55635  70.0001 307.0467 0002467 268.9839  91.1037 14.98338814 54576,6950.166,96.106,573.745,570.316,0.0
55635.0,STARLINK-5495,PAYLOAD,2024-02-06 20:11:58,14.98329053,0.0002462,70.0,305.3631,269.8866,90.2011,4.1912e-05,4.07e-06,0.0,0 STARLINK-5495,1 55635U 23021H   24037.84164829  .00000407  00000-0  41912-4 0  9992,2 55635  70.0000 305.3631 0002462 269.8866  90.2011 14.98329053 54379,6950.196,96.107,573.772,570.35,0.0
55635.0,STARLINK-5495,PAYLOAD,2024-02-06 21:48:06,14.983292,0.0002465,70.0,305.1947,269.9085,90.1792,4.2679e-05,4.16e-06,0.0,0 STARLINK-5495,1 55635U 23021H   24037.90840822  .00000416  00000-0  42679-4 0  9994,2 55635  70.0000 305.1947 0002465 269.9085  90.1792 14.98329200 54687,6950.195,96.107,573.774,570.347,0.0
55635.0,STARLINK-5495,PAYLOAD,2024-02-07 10:37:11,14.98325936,0.0001805,70.0018,303.8447,290.5901,69.5065,-6.1524e-05,-8.27e-06,0.0,0 STARLINK-5495,1 55635U 23021H   24038.44249392 -.00000827  00000-0 -61524-4 0  9997,2 55635  70.0018 303.8447 0001805 290.5901  69.5065 14.98325936 54764,6950.205,96.107,573.325,570.816,0.0
55635.0,STARLINK-5495,PAYLOAD,2024-02-07 20:14:00,14.98323503,0.0002561,70.0003,302.8396,259.0323,101.0548,-0.00012558,-1.591e-05,0.0,0 STARLINK-5495,1 55635U 23021H   24038.84305579 -.00001591  00000-0 -12558-3 0  9992,2 55635  70.0003 302.8396 0002561 259.0323 101.0548 14.98323503 54528,6950.213,96.107,573.858,570.298,0.0
55635.0,STARLINK-5495,PAYLOAD,2024-02-07 21:50:08,14.98323909,0.0002524,70.0003,302.6712,259.1151,100.9724,-0.00011673,-1.485e-05,0.0,0 STARLINK-5495,1 55635U 23021H   24038.90981555 -.00001485  00000-0 -11673-3 0  9992,2 55635  70.0003 302.6712 0002524 259.1151 100.9724 14.98323909 54835,6950.212,96.107,573.831,570.322,0.0
55635.0,STARLINK-5495,PAYLOAD,2024-02-08 01:02:24,14.98325186,0.0002477,70.0001,302.3334,266.3259,93.7616,-0.00010762,-1.377e-05,0.0,0 STARLINK-5495,1 55635U 23021H   24039.04333518 -.00001377  00000-0 -10762-3 0  9996,2 55635  70.0001 302.3334 0002477 266.3259  93.7616 14.98325186 54856,6950.208,96.107,573.794,570.351,0.0
55635.0,STARLINK-5495,PAYLOAD,2024-02-08 20:16:00,14.98331241,0.0002593,69.9998,300.3144,257.5927,102.4942,-7.2603e-06,-1.8e-06,0.0,0 STARLINK-5495,1 55635U 23021H   24039.84444893 -.00000180  00000-0 -72603-5 0  9998,2 55635  69.9998 300.3144 0002593 257.5927 102.4942 14.98331241 54677,6950.189,96.107,573.856,570.252,0.0
55635.0,STARLINK-5495,PAYLOAD,2024-02-08 21:52:08,14.98331043,0.0002585,69.9999,300.146,257.4867,102.6003,-4.5991e-06,-1.48e-06,0.0,0 STARLINK-5495,1 55635U 23021H   24039.91120896 -.00000148  00000-0 -45991-5 0  9994,2 55635  69.9999 300.1460 0002585 257.4867 102.6003 14.98331043 54984,6950.19,96.107,573.851,570.258,0.0
55635.0,STARLINK-5495,PAYLOAD,2024-02-09 02:40:32,14.98335447,0.0002553,69.9998,299.6409,257.5921,102.4953,4.3479e-05,4.26e-06,0.0,0 STARLINK-5495,1 55635U 23021H   24040.11148456  .00000426  00000-0  43479-4 0  9995,2 55635  69.9998 299.6409 0002553 257.5921 102.4953 14.98335447 55014,6950.176,96.107,573.815,570.267,0.0
55635.0,STARLINK-5495,PAYLOAD,2024-02-09 20:18:01,14.98324706,0.0002561,69.9999,297.7896,263.1836,96.9032,7.198e-05,7.66e-06,0.0,0 STARLINK-5495,1 55635U 23021H   24040.84585128  .00000766  00000-0  71980-4 0  9991,2 55635  69.9999 297.7896 0002561 263.1836  96.9032 14.98324706 54820,6950.209,96.107,573.854,570.294,0.0
55635.0,STARLINK-5495,PAYLOAD,2024-02-10 02:42:33,14.9832646,0.0002588,69.9997,297.1153,263.6845,96.4019,7.4308e-05,7.94e-06,0.0,0 STARLINK-5495,1 55635U 23021H   24041.11289065  .00000794  00000-0  74308-4 0  9991,2 55635  69.9997 297.1153 0002588 263.6845  96.4019 14.98326460 55169,6950.204,96.107,573.868,570.27,0.0
55635.0,STARLINK-5495,PAYLOAD,2024-02-10 20:20:02,14.98335574,0.0002614,69.9995,295.2634,266.1395,93.9465,1.0077e-05,2.7e-07,0.0,0 STARLINK-5495,1 55635U 23021H   24041.84724641  .00000027  00000-0  10077-4 0  9997,2 55635  69.9995 295.2634 0002614 266.1395  93.9465 14.98335574 54979,6950.176,96.107,573.857,570.224,0.0
55635.0,STARLINK-5495,PAYLOAD,2024-02-10 21:56:10,14.98335316,0.0002619,69.9995,295.095,266.3152,93.7708,7.1774e-06,-7e-08,0.0,0 STARLINK-5495,1 55635U 23021H   24041.91400644 -.00000007  00000-0  71774-5 0  9990,2 55635  69.9995 295.0950 0002619 266.3152  93.7708 14.98335316 55283,6950.176,96.107,573.862,570.221,0.0
55635.0,STARLINK-5495,PAYLOAD,2024-02-11 02:44:34,14.9833795,0.0002584,69.9996,294.5906,265.4114,94.675,3.7367e-05,3.53e-06,0.0,0 STARLINK-5495,1 55635U 23021H   24042.11428310  .00000353  00000-0  37367-4 0  9995,2 55635  69.9996 294.5906 0002584 265.4114  94.6750 14.98337950 55315,6950.168,96.106,573.829,570.237,0.0
55635.0,STARLINK-5495,PAYLOAD,2024-02-11 20:22:02,14.98331823,0.0002552,69.9997,292.7384,265.894,94.1927,3.6253e-05,3.4e-06,0.0,0 STARLINK-5495,1 55635U 23021H   24042.84864499  .00000340  00000-0  36253-4 0  9996,2 55635  69.9997 292.7384 0002552 265.8940  94.1927 14.98331823 55125,6950.187,96.107,573.826,570.279,0.0
55635.0,STARLINK-5495,PAYLOAD,2024-02-11 21:58:11,14.98331433,0.0002552,69.9995,292.57,265.3159,94.7709,3.1236e-05,2.8e-06,0.0,0 STARLINK-5495,1 55635U 23021H   24042.91540517  .00000280  00000-0  31236-4 0  9995,2 55635  69.9995 292.5700 0002552 265.3159  94.7709 14.98331433 55435,6950.188,96.107,573.827,570.28,0.0
55635.0,STARLINK-5495,PAYLOAD,2024-02-12 02:46:34,14.98335417,0.0002503,69.9995,292.0648,263.8853,96.2021,7.5248e-05,8.05e-06,0.0,0 STARLINK-5495,1 55635U 23021H   24043.11568083  .00000805  00000-0  75248-4 0  9990,2 55635  69.9995 292.0648 0002503 263.8853  96.2021 14.98335417 55464,6950.176,96.107,573.781,570.302,0.0
55635.0,STARLINK-5495,PAYLOAD,2024-02-12 20:24:04,14.98326864,0.0002238,70.0002,290.2137,253.8933,106.198,-5.9916e-05,-8.08e-06,0.0,0 STARLINK-5495,1 55635U 23021H   24043.85004939 -.00000808  00000-0 -59916-4 0  9995,2 55635  70.0002 290.2137 0002238 253.8933 106.1980 14.98326864 55272,6950.203,96.107,573.623,570.512,0.0
55635.0,STARLINK-5495,PAYLOAD,2024-02-12 22:00:12,14.9832641,0.000224,70.0002,290.0454,253.7764,106.3149,-6.4687e-05,-8.65e-06,0.0,0 STARLINK-5495,1 55635U 23021H   24043.91680976 -.00000865  00000-0 -64687-4 0  9997,2 55635  70.0002 290.0454 0002240 253.7764 106.3149 14.98326410 55586,6950.204,96.107,573.626,570.512,0.0
55635.0,STARLINK-5495,PAYLOAD,2024-02-13 09:13:09,14.98329474,0.0002277,70.0001,288.8668,265.6166,94.4733,-0.00017887,-2.226e-05,0.0,0 STARLINK-5495,1 55635U 23021H   24044.38413233 -.00002226  00000-0 -17887-3 0  9991,2 55635  70.0001 288.8668 0002277 265.6166  94.4733 14.98329474 55652,6950.195,96.107,573.642,570.477,0.0
55635.0,STARLINK-5495,PAYLOAD,2024-02-13 22:02:13,14.98330371,0.0002552,69.999,287.5192,260.9488,99.1382,-2.7239e-06,-1.25e-06,0.0,0 STARLINK-5495,1 55635U 23021H   24044.91820694 -.00000125  00000-0 -27239-5 0  9993,2 55635  69.9990 287.5192 0002552 260.9488  99.1382 14.98330371 55734,6950.192,96.107,573.83,570.283,0.0
55635.0,STARLINK-5495,PAYLOAD,2024-02-14 02:50:37,14.98332865,0.0002658,69.9986,287.0138,267.9042,92.1813,6.6036e-06,-1.4e-07,0.0,0 STARLINK-5495,1 55635U 23021H   24045.11848523 -.00000014  00000-0  66036-5 0  9991,2 55635  69.9986 287.0138 0002658 267.9042  92.1813 14.98332865 55466,6950.184,96.107,573.896,570.202,0.0
55635.0,STARLINK-5495,PAYLOAD,2024-02-14 09:15:09,14.98328326,0.0002729,69.9988,286.3407,247.525,112.562,5.7376e-05,5.92e-06,0.0,0 STARLINK-5495,1 55635U 23021H   24045.38552578  .00000592  00000-0  57376-4 0  9998,2 55635  69.9988 286.3407 0002729 247.5250 112.5620 14.98328326 55801,6950.198,96.107,573.96,570.166,0.0
55635.0,STARLINK-5495,PAYLOAD,2024-02-14 22:04:14,14.98328486,0.0002683,69.9984,284.9941,267.9828,92.1024,6.3928e-05,6.7e-06,0.0,0 STARLINK-5495,1 55635U 23021H   24045.91960662  .00000670  00000-0  63928-4 0  9991,2 55635  69.9984 284.9941 0002683 267.9828  92.1024 14.98328486 55886,6950.198,96.107,573.927,570.198,0.0
55635.0,STARLINK-5495,PAYLOAD,2024-02-15 01:16:30,14.9832737,0.0002716,69.9985,284.6575,267.6635,92.4213,4.6207e-05,4.58e-06,0.0,0 STARLINK-5495,1 55635U 23021H   24046.05312794  .00000458  00000-0  46207-4 0  9999,2 55635  69.9985 284.6575 0002716 267.6635  92.4213 14.98327370 55601,6950.201,96.107,573.954,570.178,0.0
55635.0,STARLINK-5495,PAYLOAD,2024-02-15 22:06:15,14.98329128,0.0002768,69.9984,282.4691,268.4509,91.6332,-6.7181e-06,-1.73e-06,0.0,0 STARLINK-5495,1 55635U 23021H   24046.92100944 -.00000173  00000-0 -67181-5 0  9998,2 55635  69.9984 282.4691 0002768 268.4509  91.6332 14.98329128 56035,6950.196,96.107,573.984,570.137,0.0
55635.0,STARLINK-5495,PAYLOAD,2024-02-16 01:18:31,14.98329967,0.0002758,69.9984,282.1325,268.5341,91.5502,3.2286e-06,-5.4e-07,0.0,0 STARLINK-5495,1 55635U 23021H   24047.05452868 -.00000054  00000-0  32286-5 0  9993,2 55635  69.9984 282.1325 0002758 268.5341  91.5502 14.98329967 55757,6950.193,96.107,573.975,570.141,0.0
55635.0,STARLINK-5495,PAYLOAD,2024-02-16 14:07:35,14.98332432,0.0002867,69.9981,280.7856,269.4055,90.6775,3.3616e-05,3.08e-06,0.0,0 STARLINK-5495,1 55635U 23021H   24047.58860538  .00000308  00000-0  33616-4 0  9996,2 55635  69.9981 280.7856 0002867 269.4055  90.6775 14.98332432 56136,6950.185,96.107,574.043,570.058,0.0
